414P/STEREO,e,23.3861,257.7902,210.7196,2.793878,0.2110537,0.81162333,100.3908,05/16.0/2022,2000,g 19.0,4.0
# From MPEC 2022-J42
415P/Tenagra,e,31.7924,160.2948,346.1519,4.114116,0.1181107,0.19466111,53.7910,05/16.0/2022,2000,g 12.0,4.0
# From MPEC 2021-L04
416P/Scotti,e,3.3613,355.8116,134.4669,4.011549,0.1226693,0.45428126,55.7715,05/16.0/2022,2000,g 15.5,4.0
# From MPEC 2021-W31
417P/NEOWISE,e,8.1238,111.2539,129.5014,3.349943,0.1607489,0.55535816,62.4679,05/16.0/2022,2000,g 16.5,4.0
# From MPEC 2021-L04
418P/LINEAR,e,5.7967,277.6538,307.1246,5.081594,0.0860407,0.66483943,18.1030,05/16.0/2022,2000,g 13.0,4.0
# From MPEC 2022-CN4
419P/PANSTARRS,e,2.8029,40.3901,187.5159,3.520561,0.1492060,0.27756610,29.9147,05/16.0/2022,2000,g 12.5,4.0
# From MPEC 2021-S45
420P/Hill,e,14.5044,173.9515,157.0916,5.532282,0.0757439,0.49596807,359.5075,05/16.0/2022,2000,g 11.5,4.0
# From MPEC 2021-W31
421P/McNaught,e,10.0792,55.3472,259.8397,5.075541,0.0861947,0.67546855,40.9597,05/16.0/2022,2000,g 14.0,4.0
# From MPEC 2022-A21
422P/Christensen,e,39.5501,36.0313,305.1518,6.320487,0.0620266,0.50871672,7.5819,05/16.0/2022,2000,g 11.0,4.0
# From MPEC 2022-A21
423P/Lemmon,e,8.3459,33.3034,80.2939,6.166566,0.0643634,0.12108575,15.4194,05/16.0/2022,2000,g  8.0,4.0
# From MPEC 2022-CN4
424P/LaSagra,e,8.6854,51.1770,312.4798,4.414183,0.1062744,0.69127435,20.8684,05/16.0/2022,2000,g 17.0,4.0
# From MPEC 2022-GA9
425P/Kowalski,e,16.4204,210.0842,200.7563,6.332008,0.0618574,0.54355644,14.6912,05/16.0/2022,2000,g 12.0,4.0
# From MPEC 2021-Y10
426P/PANSTARRS,e,17.7726,280.5214,119.1064,3.186424,0.1732802,0.16133604,275.7965,05/16.0/2022,2000,g 13.5,4.0
# From MPEC 2022-J42
428P/Gibbs,e,8.5147,299.3376,36.8257,3.484495,0.1515285,0.51948869,55.5095,05/16.0/2022,2000,g 15.0,4.0
# From MPEC 2022-H04
429P/LINEAR-Hill,e,7.5219,322.0733,75.5403,3.550696,0.1473106,0.49129595,19.7181,05/16.0/2022,2000,g 15.5,4.0
# From MPEC 2022-J42
430P/Scotti,e,4.4750,54.6719,94.4954,3.106555,0.1800054,0.49957946,29.6629,05/16.0/2022,2000,g 16.5,4.0
# From MPEC 2022-ED3
431P/Scotti,e,22.3921,202.8461,199.8585,3.472310,0.1523268,0.47766988,13.9576,05/16.0/2022,2000,g 14.0,4.0
# From MPEC 2021-U31
432P/PANSTARRS,e,10.0694,239.1429,105.2348,3.035427,0.1863693,0.24201346,48.2060,05/16.0/2022,2000,g 17.0,4.0
# From MPEC 2022-GA9
434P/Tenagra,e,6.3395,288.9681,128.0572,4.128205,0.1175066,0.27437765,23.7545,05/16.0/2022,2000,g 13.0,4.0
# From MPEC 2021-W31
435P/PANSTARRS,e,18.8826,98.5499,244.1538,3.018387,0.1879497,0.31870658,54.9815,05/16.0/2022,2000,g 17.0,4.0
# From MPEC 2022-C56
436P/Garradd,e,20.2105,87.1896,282.5974,5.928852,0.0682729,0.66981079,10.8210,05/16.0/2022,2000,g 14.5,4.0
# From MPEC 2021-Y10
437P/PANSTARRS,e,3.6896,245.8687,206.7124,4.558807,0.1012575,0.25414999,350.4383,05/16.0/2022,2000,g 13.0,4.0
# From MPEC 2021-W47
438P/Christensen,e,8.2875,260.1544,58.9529,3.847187,0.1306138,0.41572394,100.6561,05/16.0/2022,2000,g 14.5,4.0
# From MPEC 2022-C56
439P/LINEAR,e,7.1142,56.4154,342.0037,3.487806,0.1513128,0.46950507,39.7777,05/16.0/2022,2000,g 13.5,4.0
# From MPEC 2022-J42
440P/Kobayashi,e,12.3394,328.8822,183.3170,8.584609,0.0391853,0.76047530,1.8438,05/16.0/2022,2000,g 15.5,4.0
# From MPEC 2022-HC2
441P/PANSTARRS,e,2.5745,143.6162,178.7357,4.134745,0.1172279,0.19559709,218.0420,05/16.0/2022,2000,g 13.5,4.0
# From MPC107687
1I/`Oumuamua,h,09/09.4886/2017,122.6778,24.5997,241.6845,1.199252,0.255240,2000,23.0,2.0
# From MPEC 2020-K19
2I/Borisov,h,12/08.5549/2019,44.0527,308.1480,209.1251,3.356636,2.006548,2000,11.0,4.0
